HAWK-C                  
1 43799U 18099AT  26068.67261865  .00009431  00000+0  35663-3 0  9994
2 43799  97.4027 122.6817 0040363 277.4052  82.2601 15.26407167398720
STARLINK-2469           
1 48128U 21027AN  26068.38685403  .00022048  00000+0  10578-2 0  9992
2 48128  53.1065 102.3811 0001315  92.2024 267.9122 15.18828320273357
